[{"OBJECT_NAME":"STARLINK-2570","OBJECT_ID":"2021-038BE","EPOCH":"2026-03-09T21:34:35.486112","MEAN_MOTION":15.30189438,"ECCENTRICITY":0.00011491,"INCLINATION":53.1602,"RA_OF_ASC_NODE":331.8971,"ARG_OF_PERICENTER":114.9213,"MEAN_ANOMALY":245.1907,"EPHEMERIS_TYPE":0,"CLASSIFICATION_TYPE":"U","NORAD_CAT_ID":48405,"ELEMENT_SET_NO":999,"REV_AT_EPOCH":26746,"BSTAR":-2.4708859e-5,"MEAN_MOTION_DOT":-1.091e-5,"MEAN_MOTION_DDOT":0},{"OBJECT_NAME":"OBJECT E","OBJECT_ID":"2024-092E","EPOCH":"2026-03-09T21:25:47.709120","MEAN_MOTION":15.32997986,"ECCENTRICITY":0.0008531,"INCLINATION":97.642,"RA_OF_ASC_NODE":198.2099,"ARG_OF_PERICENTER":142.2606,"MEAN_ANOMALY":217.9236,"EPHEMERIS_TYPE":0,"CLASSIFICATION_TYPE":"U","NORAD_CAT_ID":59777,"ELEMENT_SET_NO":999,"REV_AT_EPOCH":10051,"BSTAR":0.00078641119,"MEAN_MOTION_DOT":0.00025066,"MEAN_MOTION_DDOT":0}]
